{
  "type": "FeatureCollection",
  "schematic": true,
  "note": "机制示意，不代表 YAGI 当时真实大气分析场。",
  "features": [
    {
      "type": "Feature",
      "geometry": {
        "type": "Polygon",
        "coordinates": [
          [
            [
              141,
              27
            ],
            [
              140.727,
              28.165
            ],
            [
              139.928,
              29.25
            ],
            [
              138.657,
              30.182
            ],
            [
              137,
              30.897
            ],
            [
              135.071,
              31.347
            ],
            [
              133,
              31.5
            ],
            [
              130.929,
              31.347
            ],
            [
              129,
              30.897
            ],
            [
              127.343,
              30.182
            ],
            [
              126.072,
              29.25
            ],
            [
              125.273,
              28.165
            ],
            [
              125,
              27
            ],
            [
              125.273,
              25.835
            ],
            [
              126.072,
              24.75
            ],
            [
              127.343,
              23.818
            ],
            [
              129,
              23.103
            ],
            [
              130.929,
              22.653
            ],
            [
              133,
              22.5
            ],
            [
              135.071,
              22.653
            ],
            [
              137,
              23.103
            ],
            [
              138.657,
              23.818
            ],
            [
              139.928,
              24.75
            ],
            [
              140.727,
              25.835
            ],
            [
              141,
              27
            ]
          ]
        ]
      },
      "properties": {
        "id": "ridge-ellipse",
        "label": "副热带高压（示意位置）",
        "note": "示意椭圆仅表示“高压大致位于台风北侧”的典型配置，非真实分析场。"
      }
    },
    {
      "type": "Feature",
      "geometry": {
        "type": "LineString",
        "coordinates": [
          [
            140,
            21.5
          ],
          [
            134,
            21
          ],
          [
            127,
            20
          ],
          [
            120,
            19.5
          ],
          [
            114,
            19.2
          ]
        ]
      },
      "properties": {
        "id": "steering-flow",
        "label": "引导气流（示意）",
        "note": "示意：台风常沿高压南侧的偏东引导气流向西移动。"
      }
    },
    {
      "type": "Feature",
      "geometry": {
        "type": "LineString",
        "coordinates": [
          [
            126,
            24.5
          ],
          [
            125.5,
            27
          ],
          [
            127,
            30
          ]
        ]
      },
      "properties": {
        "id": "recurve-flow",
        "label": "转向气流（示意）",
        "note": "示意：当高压减弱或台风移至高压西缘，引导气流转为偏南风，台风随之转向北上。"
      }
    }
  ]
}